OBJECT_NAME,OBJECT_ID,EPOCH,MEAN_MOTION,ECCENTRICITY,INCLINATION,RA_OF_ASC_NODE,ARG_OF_PERICENTER,MEAN_ANOMALY,EPHEMERIS_TYPE,CLASSIFICATION_TYPE,NORAD_CAT_ID,ELEMENT_SET_NO,REV_AT_EPOCH,BSTAR,MEAN_MOTION_DOT,MEAN_MOTION_DDOT
GOMX-1,2013-066Q,2026-05-11T03:22:39.800352,14.69313597,.0128259,97.6512,333.9391,195.8918,163.8248,0,U,39430,999,66447,.21676E-3,.14E-4,0
CUBEBUG-2 (LO-74),2013-066AA,2026-05-11T03:35:43.526112,14.93485032,.0058762,97.8888,79.9863,148.6845,211.7896,0,U,39440,999,67146,.2196E-3,.2328E-4,0
NEE-02 KRYSAOR,2013-066AB,2026-05-10T18:48:39.366144,14.86478863,.0065864,97.8879,70.2742,191.1009,168.8757,0,U,39441,999,67064,.12007E-3,.1045E-4,0
FUNCUBE-1 (AO-73),2013-066AE,2026-05-11T04:38:48.236640,15.09004761,.0035647,97.8258,101.8861,332.4449,27.4889,0,U,39444,999,67408,.35839E-3,.5682E-4,0
UWE-3,2013-066AG,2026-05-10T09:06:52.310304,14.96709697,.0051084,97.8682,86.2160,85.6808,275.0248,0,U,39446,999,67192,.19192E-3,.2188E-4,0
SMDC ONE 2.4,2013-072H,2026-05-11T01:12:21.029760,15.17484604,.013964,120.4875,208.7957,338.7660,20.7659,0,U,39469,999,11219,.23811E-3,.577E-4,0
COSMOS 2489 (RODNIK-S 8),2013-076B,2026-05-11T05:24:50.822208,12.42879446,.0021707,82.4896,193.0882,172.7595,187.3803,0,U,39484,999,56135,.56412E-4,.18E-6,0
COSMOS 2490 (RODNIK-S 9),2013-076C,2026-05-11T04:44:16.315584,12.42876860,.0021467,82.4843,191.1895,188.5294,171.5424,0,U,39485,999,56128,.35741E-3,.59E-6,0
COSMOS 2496 (RODNIK-S 10),2014-028A,2026-05-11T05:39:06.814656,12.42876551,.0020368,82.4427,131.8773,156.1342,204.0686,0,U,39761,999,54292,-.35344E-3,-.39E-6,0
COSMOS 2497 (RODNIK-S 11),2014-028B,2026-05-11T05:04:11.424576,12.42892390,.002103,82.4476,133.5680,151.3151,208.9090,0,U,39762,999,54292,-.42866E-3,-.49E-6,0
COSMOS 2498 (RODNIK-S 12),2014-028C,2026-05-11T04:35:37.621824,12.42978958,.0021749,82.4436,132.0836,151.1312,209.0976,0,U,39763,999,54295,-.19233E-3,-.17E-6,0
HODOYOSHI-4,2014-033B,2026-05-11T04:26:59.546688,14.88038327,.0025059,97.5461,317.7967,69.4057,290.9845,0,U,40011,999,64330,.57866E-4,.482E-5,0
UNISAT-6,2014-033C,2026-05-11T03:37:51.511296,14.88025980,.0045101,97.7836,284.5312,188.8257,171.2172,0,U,40012,999,64065,.20992E-3,.1907E-4,0
DEIMOS-2,2014-033D,2026-05-11T04:54:04.989024,14.93622178,.0002469,97.5874,6.9851,86.0265,274.1237,0,U,40013,999,63220,.15266E-3,.1557E-4,0
BUGSAT-1 (TITA),2014-033E,2026-05-11T04:34:20.268768,15.15204213,.0027126,98.0406,221.5900,308.7019,51.1786,0,U,40014,999,65023,.20625E-3,.3831E-4,0
SAUDISAT 4,2014-033G,2026-05-11T02:59:22.625088,14.79488817,.0044558,97.7534,278.5528,192.2022,167.8115,0,U,40016,999,64059,.71653E-4,.492E-5,0
APRIZESAT 9,2014-033J,2026-05-10T22:39:37.934784,14.74170326,.0065242,97.9005,265.0643,320.9961,38.6552,0,U,40018,999,63807,.50949E-4,.294E-5,0
BRITE-CA1 (TORONTO),2014-033L,2026-05-11T03:26:34.056672,14.72625573,.0079415,97.9685,260.7669,36.3985,324.2586,0,U,40020,999,63676,.80945E-4,.488E-5,0
DUCHIFAT-1,2014-033M,2026-05-11T02:20:54.203712,15.58120348,.0005749,98.0509,185.2613,192.0264,168.0853,0,U,40021,999,64996,.69398E-3,.52397E-3,0
NANOSATC-BR1,2014-033Q,2026-05-11T00:17:38.863968,15.30275875,.0002061,98.0759,160.1389,337.3328,22.7820,0,U,40024,999,64829,.3628E-3,.10543E-3,0
QB50P1,2014-033R,2026-05-10T23:18:48.618720,15.17678552,.0008589,98.0986,139.5250,5.5250,354.6075,0,U,40025,999,64738,.2922E-3,.5815E-4,0
