GOMX-1                  
1 39430U 13066Q   26131.14073843  .00001400  00000+0  21676-3 0  9997
2 39430  97.6512 333.9391 0128259 195.8918 163.8248 14.69313597664477
CUBEBUG-2 (LO-74)       
1 39440U 13066AA  26131.14980934  .00002328  00000+0  21960-3 0  9992
2 39440  97.8888  79.9863 0058762 148.6845 211.7896 14.93485032671463
NEE-02 KRYSAOR          
1 39441U 13066AB  26130.78378896  .00001045  00000+0  12007-3 0  9997
2 39441  97.8879  70.2742 0065864 191.1009 168.8757 14.86478863670643
FUNCUBE-1 (AO-73)       
1 39444U 13066AE  26131.19361385  .00005682  00000+0  35839-3 0  9990
2 39444  97.8258 101.8861 0035647 332.4449  27.4889 15.09004761674080
UWE-3                   
1 39446U 13066AG  26130.37977211  .00002188  00000+0  19192-3 0  9994
2 39446  97.8682  86.2160 0051084  85.6808 275.0248 14.96709697671925
SMDC ONE 2.4            
1 39469U 13072H   26131.05024340  .00005770  00000+0  23811-3 0  9991
2 39469 120.4875 208.7957 0139640 338.7660  20.7659 15.17484604112197
COSMOS 2489 (RODNIK-S 8)
1 39484U 13076B   26131.22558822  .00000018  00000+0  56412-4 0  9992
2 39484  82.4896 193.0882 0021707 172.7595 187.3803 12.42879446561358
COSMOS 2490 (RODNIK-S 9)
1 39485U 13076C   26131.19741106  .00000059  00000+0  35741-3 0  9994
2 39485  82.4843 191.1895 0021467 188.5294 171.5424 12.42876860561281
COSMOS 2496 (RODNIK-S *)
1 39761U 14028A   26131.23549554 -.00000039  00000+0 -35344-3 0  9996
2 39761  82.4427 131.8773 0020368 156.1342 204.0686 12.42876551542925
COSMOS 2497 (RODNIK-S *)
1 39762U 14028B   26131.21124334 -.00000049  00000+0 -42866-3 0  9998
2 39762  82.4476 133.5680 0021030 151.3151 208.9090 12.42892390542929
COSMOS 2498 (RODNIK-S *)
1 39763U 14028C   26131.19140766 -.00000017  00000+0 -19233-3 0  9990
2 39763  82.4436 132.0836 0021749 151.1312 209.0976 12.42978958542950
HODOYOSHI-4             
1 40011U 14033B   26131.18541142  .00000482  00000+0  57866-4 0  9995
2 40011  97.5461 317.7967 0025059  69.4057 290.9845 14.88038327643309
UNISAT-6                
1 40012U 14033C   26131.15129064  .00001907  00000+0  20992-3 0  9990
2 40012  97.7836 284.5312 0045101 188.8257 171.2172 14.88025980640651
DEIMOS-2                
1 40013U 14033D   26131.20422441  .00001557  00000+0  15266-3 0  9991
2 40013  97.5874   6.9851 0002469  86.0265 274.1237 14.93622178632209
BUGSAT-1 (TITA)         
1 40014U 14033E   26131.19051237  .00003831  00000+0  20625-3 0  9993
2 40014  98.0406 221.5900 0027126 308.7019  51.1786 15.15204213650231
SAUDISAT 4              
1 40016U 14033G   26131.12456743  .00000492  00000+0  71653-4 0  9997
2 40016  97.7534 278.5528 0044557 192.2022 167.8115 14.79488817640598
APRIZESAT 9             
1 40018U 14033J   26130.94418907  .00000294  00000+0  50949-4 0  9993
2 40018  97.9005 265.0643 0065241 320.9961  38.6552 14.74170326638077
BRITE-CA1 (TORONTO)     
1 40020U 14033L   26131.14344974  .00000488  00000+0  80945-4 0  9995
2 40020  97.9685 260.7669 0079415  36.3985 324.2586 14.72625573636768
DUCHIFAT-1              
1 40021U 14033M   26131.09784958  .00052397  00000+0  69398-3 0  9994
2 40021  98.0509 185.2613 0005749 192.0264 168.0853 15.58120348649967
NANOSATC-BR1            
1 40024U 14033Q   26131.01225537  .00010543  00000+0  36280-3 0  9993
2 40024  98.0759 160.1389 0002061 337.3328  22.7820 15.30275875648299
QB50P1                  
1 40025U 14033R   26130.97139606  .00005815  00000+0  29220-3 0  9991
2 40025  98.0986 139.5250 0008588   5.5250 354.6075 15.17678552647389
